COSMOS 2491 DEB
1 45128U 13076AA  26119.07600275  .00008148  00000+0  24380-2 0  9992
2 45128  81.2053  49.6155 0027178  23.1875 337.0533 14.42604928 54960
